NAVSTAR 48 (USA 151)    
1 26407U 00040A   26154.76631328  .00000036  00000+0  00000+0 0  9994
2 26407  54.8531 215.6956 0121208 302.4100  11.1020  2.00557649189679
NAVSTAR 51 (USA 166)    
1 27663U 03005A   26153.11683564  .00000042  00000+0  00000+0 0  9997
2 27663  54.8845 215.5678 0147930  53.0404 285.3077  2.00561461171000
NAVSTAR 54 (USA 177)    
1 28190U 04009A   26154.43882672 -.00000034  00000+0  00000+0 0  9997
2 28190  54.8416 276.2428 0115549 172.5074 193.8280  2.00555284162676
NAVSTAR 56 (USA 180)    
1 28474U 04045A   26153.78951816 -.00000077  00000+0  00000+0 0  9993
2 28474  55.1451 325.4759 0169815 316.0475   6.4312  2.00555416158131
NAVSTAR 57 (USA 183)    
1 28874U 05038A   26153.37012406 -.00000034  00000+0  00000+0 0  9991
2 28874  54.8906 273.7755 0127789 296.0552  46.7021  2.00566825151531
INMARSAT 4-F2           
1 28899U 05044A   26154.94643249 -.00000250  00000+0  00000+0 0  9994
2 28899   5.0778  43.7191 0003276  29.7378 303.1482  1.00270607 75381
NAVSTAR 58 (USA 190)    
1 29486U 06042A   26154.27857834  .00000062  00000+0  00000+0 0  9999
2 29486  54.7088 151.8912 0106302  54.0916 122.8728  2.00570746144119
NAVSTAR 59 (USA 192)    
1 29601U 06052A   26154.45783775  .00000038  00000+0  00000+0 0  9994
2 29601  54.9363 214.5506 0085386  90.7241 270.3416  2.00557491143134
NAVSTAR 60 (USA 196)    
1 32260U 07047A   26154.26406288 -.00000024  00000+0  00000+0 0  9990
2 32260  54.0854  80.6396 0166251  87.1149 274.7760  2.00556022136537
COSMOS 2433 [GLONASS-M] 
1 32275U 07052A   26153.36863725 -.00000050  00000+0  00000+0 0  9994
2 32275  65.5855 316.4315 0001968 187.3207 172.6647  2.13104318144746
COSMOS 2432 [GLONASS-M] 
1 32276U 07052B   26152.47921043 -.00000055  00000+0  00000+0 0  9999
2 32276  65.6026 316.5890 0007962 335.3326   6.2477  2.13103259144740
NAVSTAR 61 (USA 199)    
1 32384U 07062A   26154.56167462 -.00000031  00000+0  00000+0 0  9993
2 32384  55.0430 274.7005 0035471 164.7636 177.2762  2.00559364135237
COSMOS 2434 [GLONASS-M] 
1 32393U 07065A   26155.15117458  .00000066  00000+0  00000+0 0  9999
2 32393  64.3170 192.3554 0001057 345.7165 191.6787  2.13101482143498
COSMOS 2436 [GLONASS-M] 
1 32395U 07065C   26152.48376193  .00000073  00000+0  00000+0 0  9995
2 32395  64.3249 192.5174 0017138 355.3995  68.0347  2.13100308143396
NAVSTAR 62 (USA 201)    
1 32711U 08012A   26154.17660751  .00000060  00000+0  00000+0 0  9990
2 32711  54.4953 150.4844 0210972 247.6658 110.0848  2.00572135133476
NAVSTAR 64 (USA 206)    
1 35752U 09043A   26154.40739282 -.00000076  00000+0  00000+0 0  9993
2 35752  56.2018  27.9930 0053657  82.6377  94.8092  2.00555150123084
COSMOS 2456 [GLONASS-M] 
1 36111U 09070A   26154.52229318 -.00000017  00000+0  00000+0 0  9995
2 36111  65.0041  71.4374 0005143 325.6315 247.3754  2.13103836128138
COSMOS 2457 [GLONASS-M] 
1 36112U 09070B   26154.70463846 -.00000016  00000+0  00000+0 0  9991
2 36112  64.9897  71.2753 0002236 128.1449 352.2820  2.13101278128148
COSMOS 2460 [GLONASS-M] 
1 36402U 10007C   26154.54174497 -.00000041  00000+0  00000+0 0  9996
2 36402  65.4285 314.9276 0002315  95.7935 261.6392  2.13101890126438
NAVSTAR 65 (USA 213)    
1 36585U 10022A   26154.54184649  .00000043  00000+0  00000+0 0  9996
2 36585  54.2714 209.1120 0126398  66.1333 326.5682  2.00561832117321
BEIDOU-2 IGSO-1         
1 36828U 10036A   26154.71270311 -.00000061  00000+0  00000+0 0  9993
2 36828  54.3005 163.0810 0058950 224.9172 228.3709  1.00276584 57960
BEIDOU-2 G4             
1 37210U 10057A   26155.16902799 -.00000101  00000+0  00000+0 0  9999
2 37210   3.6150  69.0257 0004835 204.0317 200.4240  1.00272425 57160
BEIDOU-2 IGSO-2         
1 37256U 10068A   26149.93047685 -.00000227  00000+0  00000+0 0  9992
2 37256  47.5822 272.0579 0055238 212.8050 204.6695  1.00287198 56612
BEIDOU-2 IGSO-3         
1 37384U 11013A   26154.69025677 -.00000180  00000+0  00000+0 0  9999
2 37384  62.3886  40.2803 0034401 185.8620  22.5488  1.00271806 55520
GSAT-8                  
1 37605U 11022A   26155.14822788  .00000096  00000+0  00000+0 0  9999
2 37605   2.0972  81.9840 0002204 222.5601  56.5001  1.00273051 53081
BEIDOU-2 IGSO-4         
1 37763U 11038A   26151.51943152  .00000047  00000+0  00000+0 0  9993
2 37763  54.5976 165.8209 0158670 231.3955 131.4280  1.00288616 54482
GSAT0101 (GALILEO-PFM)  
1 37846U 11060A   26154.35697709 -.00000074  00000+0  00000+0 0  9990
2 37846  56.9989 342.1362 0003384  47.2284 312.8120  1.70475877 90880
GSAT0102 (GALILEO-FM2)  
1 37847U 11060B   26154.86969529 -.00000073  00000+0  00000+0 0  9998
2 37847  57.0019 342.1227 0003534  13.6110 346.7054  1.70476132 90909
COSMOS 2476 [GLONASS-M] 
1 37867U 11064A   26154.59693985 -.00000014  00000+0  00000+0 0  9999
2 37867  65.2631  73.3295 0023139 240.1043 298.5020  2.13103954113477
COSMOS 2477 [GLONASS-M] 
1 37868U 11064B   26153.40291456 -.00000023  00000+0  00000+0 0  9996
2 37868  65.2688  73.4489 0020111 241.3953 281.5715  2.13103096113443
COSMOS 2475 [GLONASS-M] 
1 37869U 11064C   26154.00169506 -.00000018  00000+0  00000+0 0  9998
2 37869  65.2760  73.4504 0026050 254.0417 323.4716  2.13101972113467
